{"type": "FeatureCollection", "features": [ {"type": "Feature", "properties": {"norad_id": 66377, "name": "CZ-11 DEB", "group": "last-30-days", "lat": -52.45025950444279, "lon": 133.93982648492909, "alt_km": 441.3371700857015, "timestamp": "2025-12-05T09:41:17.887627+00:00", "meta": {"OBJECT_NAME": "CZ-11 DEB", "OBJECT_ID": "2025-255B", "EPOCH": "2025-12-04T16:57:22.330080", "MEAN_MOTION": 15.43715835, "ECCENTRICITY": 0.0013946, "INCLINATION": 52.995, "RA_OF_ASC_NODE": 216.1208, "ARG_OF_PERICENTER": 14.8324, "MEAN_ANOMALY": 345.3087, "EPHEMERIS_TYPE": 0, "CLASSIFICATION_TYPE": "U", "NORAD_CAT_ID": 66377, "ELEMENT_SET_NO": 999, "REV_AT_EPOCH": 397, "BSTAR": 0.0014579, "MEAN_MOTION_DOT": 0.00067248, "MEAN_MOTION_DDOT": 0}, "tle": {"line1": "1 66377U 25255B   25338.70650845  .00067248  00000+0  14579-2 0  9998", "line2": "2 66377  52.9950 216.1208 0013946  14.8324 345.3087 15.43715835  3977"}}, "geometry": {"type": "Point", "coordinates": [133.93982648492909, -52.45025950444279]}}, {"type": "Feature", "properties": {"norad_id": 66378, "name": "SHIYAN-32 02", "group": "last-30-days", "lat": -38.15456301341729, "lon": 176.39870054197857, "alt_km": 434.00278595528926, "timestamp": "2025-12-05T09:41:17.887638+00:00", "meta": {"OBJECT_NAME": "SHIYAN-32 02", "OBJECT_ID": "2025-255C", "EPOCH": "2025-12-04T18:22:30.495072", "MEAN_MOTION": 15.44304916, "ECCENTRICITY": 0.0012358, "INCLINATION": 52.9945, "RA_OF_ASC_NODE": 215.7783, "ARG_OF_PERICENTER": 13.1971, "MEAN_ANOMALY": 346.9354, "EPHEMERIS_TYPE": 0, "CLASSIFICATION_TYPE": "U", "NORAD_CAT_ID": 66378, "ELEMENT_SET_NO": 999, "REV_AT_EPOCH": 398, "BSTAR": 0.0013647, "MEAN_MOTION_DOT": 0.00064122, "MEAN_MOTION_DDOT": 0}, "tle": {"line1": "1 66378U 25255C   25338.76563073  .00064122  00000+0  13647-2 0  9994", "line2": "2 66378  52.9945 215.7783 0012358  13.1971 346.9354 15.44304916  3981"}}, "geometry": {"type": "Point", "coordinates": [176.39870054197857, -38.15456301341729]}}, {"type": "Feature", "properties": {"norad_id": 66379, "name": "SHIYAN-32 03", "group": "last-30-days", "lat": -41.114969998689965, "lon": 74.052084149835, "alt_km": 451.0330717150773, "timestamp": "2025-12-05T09:41:17.887650+00:00", "meta": {"OBJECT_NAME": "SHIYAN-32 03", "OBJECT_ID": "2025-255D", "EPOCH": "2025-12-04T17:07:26.939136", "MEAN_MOTION": 15.42718811, "ECCENTRICITY": 0.0015517, "INCLINATION": 52.9964, "RA_OF_ASC_NODE": 216.1651, "ARG_OF_PERICENTER": 18.3028, "MEAN_ANOMALY": 341.8531, "EPHEMERIS_TYPE": 0, "CLASSIFICATION_TYPE": "U", "NORAD_CAT_ID": 66379, "ELEMENT_SET_NO": 999, "REV_AT_EPOCH": 399, "BSTAR": 0.00070572, "MEAN_MOTION_DOT": 0.00031131, "MEAN_MOTION_DDOT": 0}, "tle": {"line1": "1 66379U 25255D   25338.71350624  .00031131  00000+0  70572-3 0  9991", "line2": "2 66379  52.9964 216.1651 0015517  18.3028 341.8531 15.42718811  3995"}}, "geometry": {"type": "Point", "coordinates": [74.052084149835, -41.114969998689965]}}, {"type": "Feature", "properties": {"norad_id": 66380, "name": "STARLINK-35139", "group": "last-30-days", "lat": 17.5217706163938, "lon": 105.52759759080973, "alt_km": 444.7044814623514, "timestamp": "2025-12-05T09:41:17.887661+00:00", "meta": {"OBJECT_NAME": "STARLINK-35139", "OBJECT_ID": "2025-257A", "EPOCH": "2025-12-04T18:00:02.000160", "MEAN_MOTION": 15.39511878, "ECCENTRICITY": 0.0001811, "INCLINATION": 53.1589, "RA_OF_ASC_NODE": 302.3007, "ARG_OF_PERICENTER": 102.6689, "MEAN_ANOMALY": 30.1701, "EPHEMERIS_TYPE": 0, "CLASSIFICATION_TYPE": "U", "NORAD_CAT_ID": 66380, "ELEMENT_SET_NO": 999, "REV_AT_EPOCH": 515, "BSTAR": 0.0030246, "MEAN_MOTION_DOT": 0.00122104, "MEAN_MOTION_DDOT": 0}, "tle": {"line1": "1 66380U 25257A   25338.75002315  .00122104  00000+0  30246-2 0  9994", "line2": "2 66380  53.1589 302.3007 0001811 102.6689  30.1701 15.39511878  5155"}}, "geometry": {"type": "Point", "coordinates": [105.52759759080973, 17.5217706163938]}}, {"type": "Feature", "properties": {"norad_id": 66381, "name": "STARLINK-35158", "group": "last-30-days", "lat": 16.091308186529165, "lon": 106.7250167703285, "alt_km": 445.3358630453913, "timestamp": "2025-12-05T09:41:17.887671+00:00", "meta": {"OBJECT_NAME": "STARLINK-35158", "OBJECT_ID": "2025-257B", "EPOCH": "2025-12-04T18:00:02.000160", "MEAN_MOTION": 15.39487211, "ECCENTRICITY": 6.46e-05, "INCLINATION": 53.1589, "RA_OF_ASC_NODE": 302.2964, "ARG_OF_PERICENTER": 118.416, "MEAN_ANOMALY": 16.3006, "EPHEMERIS_TYPE": 0, "CLASSIFICATION_TYPE": "U", "NORAD_CAT_ID": 66381, "ELEMENT_SET_NO": 999, "REV_AT_EPOCH": 521, "BSTAR": 0.0034593, "MEAN_MOTION_DOT": 0.00139926, "MEAN_MOTION_DDOT": 0}, "tle": {"line1": "1 66381U 25257B   25338.75002315  .00139926  00000+0  34593-2 0  9994", "line2": "2 66381  53.1589 302.2964 0000646 118.4160  16.3006 15.39487211  5215"}}, "geometry": {"type": "Point", "coordinates": [106.7250167703285, 16.091308186529165]}}, {"type": "Feature", "properties": {"norad_id": 66382, "name": "STARLINK-35639", "group": "last-30-days", "lat": -2.8775197782293787, "lon": 121.32645236853153, "alt_km": 449.0635791676823, "timestamp": "2025-12-05T09:41:17.887682+00:00", "meta": {"OBJECT_NAME": "STARLINK-35639", "OBJECT_ID": "2025-257C", "EPOCH": "2025-12-04T18:00:02.000160", "MEAN_MOTION": 15.3961335, "ECCENTRICITY": 8.08e-05, "INCLINATION": 53.1597, "RA_OF_ASC_NODE": 302.2474, "ARG_OF_PERICENTER": 66.1308, "MEAN_ANOMALY": 92.4753, "EPHEMERIS_TYPE": 0, "CLASSIFICATION_TYPE": "U", "NORAD_CAT_ID": 66382, "ELEMENT_SET_NO": 999, "REV_AT_EPOCH": 521, "BSTAR": -0.0019703, "MEAN_MOTION_DOT": -0.00078385, "MEAN_MOTION_DDOT": 0}, "tle": {"line1": "1 66382U 25257C   25338.75002315 -.00078385  00000+0 -19703-2 0  9994", "line2": "2 66382  53.1597 302.2474 0000808  66.1308  92.4753 15.39613350  5213"}}, "geometry": {"type": "Point", "coordinates": [121.32645236853153, -2.8775197782293787]}}, {"type": "Feature", "properties": {"norad_id": 66383, "name": "STARLINK-35690", "group": "last-30-days", "lat": -23.08672761451576, "lon": 137.75258928571836, "alt_km": 451.5513841425254, "timestamp": "2025-12-05T09:41:17.887693+00:00", "meta": {"OBJECT_NAME": "STARLINK-35690", "OBJECT_ID": "2025-257D", "EPOCH": "2025-12-04T18:00:02.000160", "MEAN_MOTION": 15.39602904, "ECCENTRICITY": 0.0001298, "INCLINATION": 53.16, "RA_OF_ASC_NODE": 302.1959, "ARG_OF_PERICENTER": 68.1966, "MEAN_ANOMALY": 116.1738, "EPHEMERIS_TYPE": 0, "CLASSIFICATION_TYPE": "U", "NORAD_CAT_ID": 66383, "ELEMENT_SET_NO": 999, "REV_AT_EPOCH": 521, "BSTAR": -0.0016852, "MEAN_MOTION_DOT": -0.00067178, "MEAN_MOTION_DDOT": 0}, "tle": {"line1": "1 66383U 25257D   25338.75002315 -.00067178  00000+0 -16852-2 0  9995", "line2": "2 66383  53.1600 302.1959 0001298  68.1966 116.1738 15.39602904  5212"}}, "geometry": {"type": "Point", "coordinates": [137.75258928571836, -23.08672761451576]}}, {"type": "Feature", "properties": {"norad_id": 66384, "name": "STARLINK-35662", "group": "last-30-days", "lat": -24.52112198401009, "lon": 139.11116516486564, "alt_km": 450.9447715155284, "timestamp": "2025-12-05T09:41:17.887703+00:00", "meta": {"OBJECT_NAME": "STARLINK-35662", "OBJECT_ID": "2025-257E", "EPOCH": "2025-12-04T18:00:02.000160", "MEAN_MOTION": 15.39456784, "ECCENTRICITY": 0.0001453, "INCLINATION": 53.1601, "RA_OF_ASC_NODE": 302.1931, "ARG_OF_PERICENTER": 95.8869, "MEAN_ANOMALY": 90.3761, "EPHEMERIS_TYPE": 0, "CLASSIFICATION_TYPE": "U", "NORAD_CAT_ID": 66384, "ELEMENT_SET_NO": 999, "REV_AT_EPOCH": 521, "BSTAR": 0.0039675, "MEAN_MOTION_DOT": 0.00160822, "MEAN_MOTION_DDOT": 0}, "tle": {"line1": "1 66384U 25257E   25338.75002315  .00160822  00000+0  39675-2 0  9992", "line2": "2 66384  53.1601 302.1931 0001453  95.8869  90.3761 15.39456784  5218"}}, "geometry": {"type": "Point", "coordinates": [139.11116516486564, -24.52112198401009]}}, {"type": "Feature", "properties": {"norad_id": 66385, "name": "STARLINK-35659", "group": "last-30-days", "lat": -4.347394135398411, "lon": 122.43107099727669, "alt_km": 448.9219499281089, "timestamp": "2025-12-05T09:41:17.887713+00:00", "meta": {"OBJECT_NAME": "STARLINK-35659", "OBJECT_ID": "2025-257F", "EPOCH": "2025-12-04T18:00:02.000160", "MEAN_MOTION": 15.39582232, "ECCENTRICITY": 9.26e-05, "INCLINATION": 53.1597, "RA_OF_ASC_NODE": 302.2443, "ARG_OF_PERICENTER": 93.334, "MEAN_ANOMALY": 67.1116, "EPHEMERIS_TYPE": 0, "CLASSIFICATION_TYPE": "U", "NORAD_CAT_ID": 66385, "ELEMENT_SET_NO": 999, "REV_AT_EPOCH": 521, "BSTAR": -0.00082128, "MEAN_MOTION_DOT": -0.00033066, "MEAN_MOTION_DDOT": 0}, "tle": {"line1": "1 66385U 25257F   25338.75002315 -.00033066  00000+0 -82128-3 0  9996", "line2": "2 66385  53.1597 302.2443 0000926  93.3340  67.1116 15.39582232  5217"}}, "geometry": {"type": "Point", "coordinates": [122.43107099727669, -4.347394135398411]}}, {"type": "Feature", "properties": {"norad_id": 66386, "name": "STARLINK-35651", "group": "last-30-days", "lat": -41.03234931720276, "lon": 159.79117191690935, "alt_km": 452.4232950461919, "timestamp": "2025-12-05T09:41:17.887725+00:00", "meta": {"OBJECT_NAME": "STARLINK-35651", "OBJECT_ID": "2025-257G", "EPOCH": "2025-12-04T18:00:02.000160", "MEAN_MOTION": 15.39506783, "ECCENTRICITY": 0.0001703, "INCLINATION": 53.1603, "RA_OF_ASC_NODE": 302.1449, "ARG_OF_PERICENTER": 94.3347, "MEAN_ANOMALY": 115.7974, "EPHEMERIS_TYPE": 0, "CLASSIFICATION_TYPE": "U", "NORAD_CAT_ID": 66386, "ELEMENT_SET_NO": 999, "REV_AT_EPOCH": 521, "BSTAR": 0.002853, "MEAN_MOTION_DOT": 0.00115026, "MEAN_MOTION_DDOT": 0}, "tle": {"line1": "1 66386U 25257G   25338.75002315  .00115026  00000+0  28530-2 0  9998", "line2": "2 66386  53.1603 302.1449 0001703  94.3347 115.7974 15.39506783  5212"}}, "geometry": {"type": "Point", "coordinates": [159.79117191690935, -41.03234931720276]}}]}